IRIDIUM 7               
1 24793U 97020B   24238.45591224  .00000785  00000+0  26705-3 0  9996
2 24793  86.3954 300.8253 0002299  87.3023 272.8436 14.35374786429463
IRIDIUM 5               
1 24795U 97020D   24238.40166819  .00007596  00000+0  70307-3 0  9995
2 24795  86.3919 219.4640 0122669 115.8114 245.5827 14.88726262441365
IRIDIUM 4               
1 24796U 97020E   24238.41806438  .00000738  00000+0  24585-3 0  9993
2 24796  86.3944 297.9119 0002381  92.9672 267.1797 14.36301715430008
IRIDIUM 914             
1 24836U 97030A   24238.61019969  .00000948  00000+0  29386-3 0  9993
2 24836  86.3942 307.3161 0003895 103.5326 256.6307 14.40188262564575
IRIDIUM 16              
1 24841U 97030F   24238.54873457  .00001105  00000+0  35865-3 0  9996
2 24841  86.4076 329.4996 0001570  25.0105 335.1169 14.38080962424504
IRIDIUM 911             
1 24842U 97030G   24238.61389054  .00001412  00000+0  38441-3 0  9994
2 24842  86.4500 328.5369 0014409  12.0530 348.1015 14.46776416432333
IRIDIUM 17              
1 24870U 97034B   24238.63132007  .00001252  00000+0  41455-3 0  9996
2 24870  86.4010 359.0256 0000595 126.8245 233.3007 14.37173098421120
IRIDIUM 920             
1 24871U 97034C   24238.59984280  .00001071  00000+0  32777-3 0  9996
2 24871  86.4024 338.9671 0010786 347.6720  12.4213 14.40886650424001
